ONEWEB-0564             
1 55801U 23029F   24176.71789345 -.00000006  00000+0 -47294-4 0  9996
2 55801  87.9212  58.2102 0001523  90.5233 269.6075 13.20773296 65782
ONEWEB-0638             
1 55802U 23029G   24176.80693725 -.00000019  00000+0 -84686-4 0  9993
2 55802  87.8966  73.4764 0002506  88.4828 271.6589 13.14504765 64495
ONEWEB-0639             
1 55803U 23029H   24176.80113284 -.00000167  00000+0 -44956-3 0  9990
2 55803  87.9157  88.7278 0003321  63.5093 296.6380 13.19726374 63629
ONEWEB-0640             
1 55804U 23029J   24176.74033634 -.00000104  00000+0 -31452-3 0  9992
2 55804  87.8964  73.4856 0002769  87.2955 272.8492 13.14503912 64507
ONEWEB-0641             
1 55805U 23029K   24176.79641359  .00000071  00000+0  14465-3 0  9993
2 55805  87.9153  88.7108 0002237  71.6224 288.5152 13.19726548 63631
ONEWEB-0642             
1 55806U 23029L   24176.79166853 -.00000107  00000+0 -29896-3 0  9991
2 55806  87.9157  88.7350 0002928  58.2830 301.8588 13.19726081 63629
ONEWEB-0643             
1 55807U 23029M   24176.78632891  .00000254  00000+0  65173-3 0  9990
2 55807  87.8967  73.4538 0002238  50.0242 310.1084 13.14502796 64487
ONEWEB-0644             
1 55808U 23029N   24176.78693152  .00000050  00000+0  92926-4 0  9999
2 55808  87.9160  88.7326 0002471  65.7499 294.3891 13.19725696 63629
